[{"OBJECT_NAME":"STARLINK-36501","OBJECT_ID":"2026-002Y","EPOCH":"2026-03-09T02:34:42.746016","MEAN_MOTION":15.27611343,"ECCENTRICITY":0.00017045,"INCLINATION":43.0019,"RA_OF_ASC_NODE":328.2274,"ARG_OF_PERICENTER":276.0429,"MEAN_ANOMALY":84.0228,"EPHEMERIS_TYPE":0,"CLASSIFICATION_TYPE":"U","NORAD_CAT_ID":67327,"ELEMENT_SET_NO":999,"REV_AT_EPOCH":1099,"BSTAR":0.0010137739,"MEAN_MOTION_DOT":0.00027767,"MEAN_MOTION_DDOT":0},{"OBJECT_NAME":"KUIPER-00274","OBJECT_ID":"2026-030AE","EPOCH":"2026-03-09T22:00:01.999584","MEAN_MOTION":15.29896925,"ECCENTRICITY":0.00182929,"INCLINATION":51.8831,"RA_OF_ASC_NODE":218.6923,"ARG_OF_PERICENTER":71.2033,"MEAN_ANOMALY":115.2248,"EPHEMERIS_TYPE":0,"CLASSIFICATION_TYPE":"U","NORAD_CAT_ID":67792,"ELEMENT_SET_NO":999,"REV_AT_EPOCH":410,"BSTAR":0.0017989756,"MEAN_MOTION_DOT":0.00053102,"MEAN_MOTION_DDOT":0}]
